#aV2006 12  1  0  0   .00000000      96 DD+AD WGS84 FIT  NGA
## 1403 432000.00000000   900.00000000 54070  .0000000000000
+   30     1  2  3  4  5  6  7  8  9 10 11 12 13 14 16 17 18
+         19 20 21 22 23 24 25 26 27 28 29 30 31  0  0  0  0
+          0  0  0  0  0  0  0  0  0  0  0  0  0  0  0  0  0
+          0  0  0  0  0  0  0  0  0  0  0  0  0  0  0  0  0
+          0  0  0  0  0  0  0  0  0  0  0  0  0  0  0  0  0
++         0  0  0  0  0  0  0  0  0  0  0  0  0  0  0  0  0
++         0  0  0  0  0  0  0  0  0  0  0  0  0  0  0  0  0
++         0  0  0  0  0  0  0  0  0  0  0  0  0  0  0  0  0
++         0  0  0  0  0  0  0  0  0  0  0  0  0  0  0  0  0
++         0  0  0  0  0  0  0  0  0  0  0  0  0  0  0  0  0
%c cc cc ccc ccc cccc cccc cccc cccc ccccc ccccc ccccc ccccc
%c cc cc ccc ccc cccc cccc cccc cccc ccccc ccccc ccccc ccccc
%f  0.0000000  0.000000000  0.00000000000  0.000000000000000
%f  0.0000000  0.000000000  0.00000000000  0.000000000000000
%i    0    0    0    0      0      0      0      0         0
%i    0    0    0    0      0      0      0      0         0
/*      NGA, ST. LOUIS,MO.                                  
/*   EPHEMERIS COMPUTED FROM  3 DAYS OF DATA                
/* CCCCCCCCCCCCCCCCCCCCCCCCCCCCCCCCCCCCCCCCCCCCCCCCCCCCCCCCC
/* CCCCCCCCCCCCCCCCCCCCCCCCCCCCCCCCCCCCCCCCCCCCCCCCCCCCCCCCC
*  2006 12  1 19  0   .00000000                                                 
P  1  19818.513972  15046.856174   9589.842667     93.077654                    
V  1 -11543.618588  -3030.254411  29178.170441       .024160                    
P  2 -13319.978726 -18841.688623 -13602.266411     59.925361                    
V  2   -763.262596 -16950.734742  24418.447185       .035920                    
P  3  23224.664758  11401.969534  -6913.991741    436.529819                    
V  3  -9077.120155   1158.195279 -29091.543268       .240429                    
P  4  -5427.676701 -25739.549855  -1774.779643    342.165719                    
V  4   3129.620309  -2752.045396  31598.205238       .037564                    
P  5 -21697.553544  11021.409847  10226.357640    401.600360                    
V  5   7200.273163 -11777.648898  27511.722261       .238749                    
P  6 -14995.804217  10132.758336 -19270.401998    528.978963                    
V  6 -23247.669990  -9192.625308  13075.515538      -.160385                    
P  7   -991.958245  15819.703395 -20931.574040    483.642712                    
V  7 -26570.756220  -7293.819129  -4257.152603      -.085533                    
P  8   2062.703624 -25086.429846  -7871.252691    -87.973618                    
V  8   3783.752260   9506.362908 -30223.151410      -.013220                    
P  9 -15185.275338   -424.489868  21235.655994     47.034771                    
V  9  -5679.275176 -27726.863927  -4261.692613       .016516                    
P 10 -15402.285010  -6010.780453 -20953.462359     93.726118                    
V 10  20136.688999 -16889.790979  -9693.915871       .006164                    
P 11  16222.792035  -3632.105286  20638.857887     -2.124166                    
V 11   8529.232257  25298.957858  -1959.857922       .016470                    
P 12 -19312.236786   -594.631875  18483.346009    -99.821150                    
V 12  16722.192565 -15986.016757  16973.084811       .138693                    
P 13  12839.447687  -9740.200580 -21192.100619    118.170721                    
V 13  24523.420990  10383.413732  10166.984092       .036926                    
P 14   5579.991496  16420.927585  20220.286623       .448958                    
V 14 -23995.621031  -8364.078633  13398.570934       .010624                    
P 16  11684.940993   9898.893850 -21629.163535     97.382450                    
V 16 -21220.009287  17709.732233  -3227.488061       .038625                    
P 17  -5475.853485 -16821.041088  19840.195710     87.787499                    
V 17  24012.904643   7644.640285  12994.125901      -.011892                    
P 18 -16025.745426  19453.865534   7971.271730   -253.148335                    
V 18  -9796.404678   3735.703857 -29608.735122      -.003272                    
P 19  25142.716670   7492.581010   4529.769586     40.149800                    
V 19   4043.794581   4786.453663 -30937.435265       .040933                    
P 20  22298.209068 -12396.197412   7230.746274    -21.789680                    
V 20  -5190.814792   8255.392264  29830.365038      -.000035                    
P 21  -6439.544721  21921.863846 -12972.797490     63.478937                    
V 21  -5471.913401 -16276.245554 -25163.398695       .014332                    
P 22  -5010.364706  19440.514330  17543.127703    153.092311                    
V 22 -18597.902122  11863.150457 -18650.903974       .025269                    
P 23  22218.292718  -2546.181851 -14558.149237    141.678450                    
V 23  16555.127429   7876.362783  23832.933481       .009260                    
P 24 -12355.801567 -18419.406880 -14216.471285     56.682632                    
V 24    133.475727 -18658.981758  24015.451877       .030003                    
P 25  10962.065074  23159.814073  -6269.823763    406.571955                    
V 25   -644.556753   9017.702214  30408.432103      -.010552                    
P 26 -25395.774407  -8196.712363   2757.593666    -28.639814                    
V 26  -3150.214755  -2742.532185 -31793.280221      -.166459                    
P 27   6532.445424 -19744.278611 -15723.798989     80.895765                    
V 27   7181.570955  20118.607616 -21727.890058       .019666                    
P 28   8261.378624 -20236.595199  15139.746424     12.983467                    
V 28  16045.088592 -10105.922146 -23066.834004      -.008915                    
P 29 -24937.404156  -9578.445148   -893.837992    233.879847                    
V 29   1886.306265  -1111.501073 -32106.969140       .253598                    
P 30 -18947.178024  18493.090356  -1398.900310     18.128908                    
V 30  -3340.701378  -1569.220143  31405.968304       .011505                    
P 31   7986.927039  24784.079034  -4923.145251    -30.809042                    
V 31  -1626.002978   6903.639735  30943.702144       .086025                    
EOF
